[{"OBJECT_NAME":"STARLINK-4755","OBJECT_ID":"2022-114AK","EPOCH":"2026-03-09T21:08:14.687520","MEAN_MOTION":15.08836368,"ECCENTRICITY":0.00018302,"INCLINATION":53.2172,"RA_OF_ASC_NODE":293.0414,"ARG_OF_PERICENTER":89.869,"MEAN_ANOMALY":270.2512,"EPHEMERIS_TYPE":0,"CLASSIFICATION_TYPE":"U","NORAD_CAT_ID":53851,"ELEMENT_SET_NO":999,"REV_AT_EPOCH":19300,"BSTAR":5.871572e-6,"MEAN_MOTION_DOT":-1.95e-6,"MEAN_MOTION_DDOT":0},{"OBJECT_NAME":"OBJECT D","OBJECT_ID":"2018-099D","EPOCH":"2026-03-09T21:55:11.400096","MEAN_MOTION":15.0608919,"ECCENTRICITY":0.00104801,"INCLINATION":97.4323,"RA_OF_ASC_NODE":113.3477,"ARG_OF_PERICENTER":333.2621,"MEAN_ANOMALY":26.8065,"EPHEMERIS_TYPE":0,"CLASSIFICATION_TYPE":"U","NORAD_CAT_ID":43761,"ELEMENT_SET_NO":999,"REV_AT_EPOCH":39716,"BSTAR":0.0002280609,"MEAN_MOTION_DOT":3.276e-5,"MEAN_MOTION_DDOT":0}]
